$$SOE
2460728.500000000, A.D. 2025-Feb-22 00:00:00.0000, -2.838014663090076E+08, 3.981358690682044E+08, -3.290095795351090E+07,
2460735.500000000, A.D. 2025-Mar-01 00:00:00.0000, -2.905630164758753E+08, 3.922094259535078E+08, -3.376780506157188E+07,
2460742.500000000, A.D. 2025-Mar-08 00:00:00.0000, -2.972040239825534E+08, 3.861204615775154E+08, -3.462064809583521E+07,
2460749.500000000, A.D. 2025-Mar-15 00:00:00.0000, -3.037211328273073E+08, 3.798707184444274E+08, -3.545906363184005E+07,
2460756.500000000, A.D. 2025-Mar-22 00:00:00.0000, -3.101109802261209E+08, 3.734619921162311E+08, -3.628262676087213E+07,
2460763.500000000, A.D. 2025-Mar-29 00:00:00.0000, -3.163701970538697E+08, 3.668961310594101E+08, -3.709091109271662E+07,
2460770.500000000, A.D. 2025-Apr-05 00:00:00.0000, -3.224954066392283E+08, 3.601750374525842E+08, -3.788348884614839E+07,
2460777.500000000, A.D. 2025-Apr-12 00:00:00.0000, -3.284832238432032E+08, 3.533006690623496E+08, -3.865993084310487E+07,
2460784.500000000, A.D. 2025-Apr-19 00:00:00.0000, -3.343302546111057E+08, 3.462750413087993E+08, -3.941980646223512E+07,
2460791.500000000, A.D. 2025-Apr-26 00:00:00.0000, -3.400330957290242E+08, 3.391002293193870E+08, -4.016268359390292E+07,
2460798.500000000, A.D. 2025-May-03 00:00:00.0000, -3.455883346745723E+08, 3.317783699918160E+08, -4.088812860605785E+07,
2460805.500000000, A.D. 2025-May-10 00:00:00.0000, -3.509925495373489E+08, 3.243116640762669E+08, -4.159570632348517E+07,
2460812.500000000, A.D. 2025-May-17 00:00:00.0000, -3.562423089767779E+08, 3.167023782376792E+08, -4.228498002777486E+07,
2460819.500000000, A.D. 2025-May-24 00:00:00.0000, -3.613341720481125E+08, 3.089528470453595E+08, -4.295551149902235E+07,
2460826.500000000, A.D. 2025-May-31 00:00:00.0000, -3.662646874838532E+08, 3.010654752024656E+08, -4.360686111275934E+07,
2460833.500000000, A.D. 2025-Jun-07 00:00:00.0000, -3.710303928373232E+08, 2.930427412216029E+08, -4.423858785755186E+07,
2460840.500000000, A.D. 2025-Jun-14 00:00:00.0000, -3.756278158599650E+08, 2.848872018819248E+08, -4.485024911189692E+07,
2460847.500000000, A.D. 2025-Jun-21 00:00:00.0000, -3.800534769016815E+08, 2.766014941993482E+08, -4.544140056030685E+07,
2460854.500000000, A.D. 2025-Jun-28 00:00:00.0000, -3.843038892106327E+08, 2.681883366751539E+08, -4.601159639150050E+07,
2460861.500000000, A.D. 2025-Jul-05 00:00:00.0000, -3.883755586566846E+08, 2.596505319791276E+08, -4.656038946394900E+07,
2460868.500000000, A.D. 2025-Jul-12 00:00:00.0000, -3.922649840786431E+08, 2.509909702635820E+08, -4.708733139663058E+07,
2460875.500000000, A.D. 2025-Jul-19 00:00:00.0000, -3.959686580739783E+08, 2.422126325349802E+08, -4.759197265047739E+07,
2460882.500000000, A.D. 2025-Jul-26 00:00:00.0000, -3.994830680293723E+08, 2.333185940273852E+08, -4.807386262529901E+07,
2460889.500000000, A.D. 2025-Aug-02 00:00:00.0000, -4.028046973356921E+08, 2.243120275996606E+08, -4.853254977735806E+07,
2460896.500000000, A.D. 2025-Aug-09 00:00:00.0000, -4.059300267736808E+08, 2.151962071418315E+08, -4.896758176196762E+07,
2460903.500000000, A.D. 2025-Aug-16 00:00:00.0000, -4.088555360037417E+08, 2.059745109271391E+08, -4.937850561441460E+07,
2460910.500000000, A.D. 2025-Aug-23 00:00:00.0000, -4.115777048780348E+08, 1.966504249255765E+08, -4.976486799580053E+07,
2460917.500000000, A.D. 2025-Aug-30 00:00:00.0000, -4.140930142573498E+08, 1.872275467914879E+08, -5.012621547673425E+07,
2460924.500000000, A.D. 2025-Sep-06 00:00:00.0000, -4.163979477635838E+08, 1.777095915232022E+08, -5.046209464838672E+07,
2460931.500000000, A.D. 2025-Sep-13 00:00:00.0000, -4.184889961532685E+08, 1.681003963097828E+08, -5.077205211244696E+07,
2460938.500000000, A.D. 2025-Sep-20 00:00:00.0000, -4.203626610528623E+08, 1.584039229189267E+08, -5.105563478629935E+07,
2460945.500000000, A.D. 2025-Sep-27 00:00:00.0000, -4.220154570096073E+08, 1.486242607333752E+08, -5.131239036723703E+07,
2460952.500000000, A.D. 2025-Oct-04 00:00:00.0000, -4.234439138899974E+08, 1.387656309689464E+08, -5.154186772837701E+07,
2460959.500000000, A.D. 2025-Oct-11 00:00:00.0000, -4.246445800170269E+08, 1.288323911261678E+08, -5.174361729157501E+07,
2460966.500000000, A.D. 2025-Oct-18 00:00:00.0000, -4.256140257790707E+08, 1.188290393960476E+08, -5.191719142803803E+07,
2460973.500000000, A.D. 2025-Oct-25 00:00:00.0000, -4.263488475863236E+08, 1.087602190241601E+08, -5.206214490033145E+07,
2460980.500000000, A.D. 2025-Nov-01 00:00:00.0000, -4.268456721507593E+08, 9.863072263923222E+07, -5.217803534969801E+07,
2460987.500000000, A.D. 2025-Nov-08 00:00:00.0000, -4.271011610715331E+08, 8.844549650283748E+07, -5.226442383610957E+07,
2460994.500000000, A.D. 2025-Nov-15 00:00:00.0000, -4.271120155965922E+08, 7.820964460745046E+07, -5.232087545163000E+07,
2461001.500000000, A.D. 2025-Nov-22 00:00:00.0000, -4.268749811786249E+08, 6.792843282755323E+07, -5.234696002897058E+07,
2461008.500000000, A.D. 2025-Nov-29 00:00:00.0000, -4.263868520004731E+08, 5.760729424252260E+07, -5.234225284178926E+07,
2461015.500000000, A.D. 2025-Dec-06 00:00:00.0000, -4.256444777700648E+08, 4.725183547751428E+07, -5.230633510256376E+07,
2461022.500000000, A.D. 2025-Dec-13 00:00:00.0000, -4.246447723748901E+08, 3.686784067307026E+07, -5.223879457706584E+07,
2461029.500000000, A.D. 2025-Dec-20 00:00:00.0000, -4.233847209242419E+08, 2.646127408658150E+07, -5.213922655519186E+07,
2461036.500000000, A.D. 2025-Dec-27 00:00:00.0000, -4.218613862710102E+08, 1.603828389245568E+07, -5.200723486971834E+07,
2461043.500000000, A.D. 2026-Jan-03 00:00:00.0000, -4.200719164917091E+08, 5.605206535899460E+06, -5.184243288174653E+07,
2461050.500000000, A.D. 2026-Jan-10 00:00:00.0000, -4.180135532365888E+08, -4.831429070340633E+06, -5.164444450138991E+07,
2461057.500000000, A.D. 2026-Jan-17 00:00:00.0000, -4.156836407381911E+08, -1.526489763156775E+07, -5.141290527534074E+07,
2461064.500000000, A.D. 2026-Jan-24 00:00:00.0000, -4.130796354197258E+08, -2.568827385345782E+07, -5.114746354905015E+07,
2461071.500000000, A.D. 2026-Jan-31 00:00:00.0000, -4.101991160978753E+08, -3.609442916950356E+07, -5.084778170854952E+07,
2461078.500000000, A.D. 2026-Feb-07 00:00:00.0000, -4.070397947352989E+08, -4.647602891584390E+07, -5.051353751440753E+07,
2461085.500000000, A.D. 2026-Feb-14 00:00:00.0000, -4.035995275048803E+08, -5.682553001766741E+07, -5.014442555429154E+07,
2461092.500000000, A.D. 2026-Feb-21 00:00:00.0000, -3.998763257908389E+08, -6.713517866317838E+07, -4.974015880423090E+07,
2461099.500000000, A.D. 2026-Feb-28 00:00:00.0000, -3.958683682210926E+08, -7.739700686937213E+07, -4.930047010617986E+07,
2461106.500000000, A.D. 2026-Mar-07 00:00:00.0000, -3.915740157967196E+08, -8.760282995285317E+07, -4.882511353383274E+07,
2461113.500000000, A.D. 2026-Mar-14 00:00:00.0000, -3.869918273488200E+08, -9.774424730585063E+07, -4.831386609345393E+07,
2461120.500000000, A.D. 2026-Mar-21 00:00:00.0000, -3.821205735403692E+08, -1.078126436488514E+08, -4.776652968674499E+07,
2461127.500000000, A.D. 2026-Mar-28 00:00:00.0000, -3.769592514141814E+08, -1.177991898047015E+08, -4.718293306606153E+07,
2461134.500000000, A.D. 2026-Apr-04 00:00:00.0000, -3.715071000762811E+08, -1.276948440395784E+08, -4.656293380370539E+07,
2461141.500000000, A.D. 2026-Apr-11 00:00:00.0000, -3.657636172215084E+08, -1.374903544151735E+08, -4.590642032777641E+07,
2461148.500000000, A.D. 2026-Apr-18 00:00:00.0000, -3.597285763155414E+08, -1.471762622461137E+08, -4.521331403664936E+07,
2461155.500000000, A.D. 2026-Apr-25 00:00:00.0000, -3.534020443514727E+08, -1.567429067385494E+08, -4.448357149060571E+07,
2461162.500000000, A.D. 2026-May-02 00:00:00.0000, -3.467844001044637E+08, -1.661804309339401E+08, -4.371718668029577E+07,
2461169.500000000, A.D. 2026-May-09 00:00:00.0000, -3.398763527046044E+08, -1.754787891217434E+08, -4.291419338246878E+07,
2461176.500000000, A.D. 2026-May-16 00:00:00.0000, -3.326789600848489E+08, -1.846277556816598E+08, -4.207466761899305E+07,
2461183.500000000, A.D. 2026-May-23 00:00:00.0000, -3.251936471756194E+08, -1.936169344317606E+08, -4.119873013172886E+07,
2461190.500000000, A.D. 2026-May-30 00:00:00.0000, -3.174222258346719E+08, -2.024357682604127E+08, -4.028654864631234E+07,
2461197.500000000, A.D. 2026-Jun-06 00:00:00.0000, -3.093669167268320E+08, -2.110735524121554E+08, -3.933834015186444E+07,
2461204.500000000, A.D. 2026-Jun-13 00:00:00.0000, -3.010303693733270E+08, -2.195194513220702E+08, -3.835437350383344E+07,
2461211.500000000, A.D. 2026-Jun-20 00:00:00.0000, -2.924156807424306E+08, -2.277625161582204E+08, -3.733497204961379E+07,
2461218.500000000, A.D. 2026-Jun-27 00:00:00.0000, -2.835264139327209E+08, -2.357917034884512E+08, -3.628051613093129E+07,
2461225.500000000, A.D. 2026-Jul-04 00:00:00.0000, -2.743666167850640E+08, -2.435958959132927E+08, -3.519144550612576E+07,
2461232.500000000, A.D. 2026-Jul-11 00:00:00.0000, -2.649408399898306E+08, -2.511639248520074E+08, -3.406826170422134E+07,
2461239.500000000, A.D. 2026-Jul-18 00:00:00.0000, -2.552541544012367E+08, -2.584845954959361E+08, -3.291153029263547E+07,
2461246.500000000, A.D. 2026-Jul-25 00:00:00.0000, -2.453121673219807E+08, -2.655467139493196E+08, -3.172188303373295E+07,
2461253.500000000, A.D. 2026-Aug-01 00:00:00.0000, -2.351210374827203E+08, -2.723391166121189E+08, -3.050001991070069E+07,
2461260.500000000, A.D. 2026-Aug-08 00:00:00.0000, -2.246874882646738E+08, -2.788507018289862E+08, -2.924671101740718E+07,
2461267.500000000, A.D. 2026-Aug-15 00:00:00.0000, -2.140188185081677E+08, -2.850704633184034E+08, -2.796279828496492E+07,
2461274.500000000, A.D. 2026-Aug-22 00:00:00.0000, -2.031229114207862E+08, -2.909875240944903E+08, -2.664919684519255E+07,
2461281.500000000, A.D. 2026-Aug-29 00:00:00.0000, -1.920082436202739E+08, -2.965911721543765E+08, -2.530689590126266E+07,
2461288.500000000, A.D. 2026-Sep-05 00:00:00.0000, -1.806838919214213E+08, -3.018709006677167E+08, -2.393695950305991E+07,
$$EOE